{"type": "FeatureCollection", "features": [ {"type": "Feature", "properties": {"norad_id": 34833, "name": "IRIDIUM 33 DEB", "group": "iridium-33-debris", "lat": -44.25415973881473, "lon": -123.60115817761721, "alt_km": 730.6989276793174, "timestamp": "2025-12-08T08:59:01.151690+00:00", "meta": {"OBJECT_NAME": "IRIDIUM 33 DEB", "OBJECT_ID": "1997-051MH", "EPOCH": "2025-12-07T16:06:42.958656", "MEAN_MOTION": 14.52331498, "ECCENTRICITY": 0.00217476, "INCLINATION": 86.3933, "RA_OF_ASC_NODE": 53.1785, "ARG_OF_PERICENTER": 114.0848, "MEAN_ANOMALY": 36.8101, "EPHEMERIS_TYPE": 0, "CLASSIFICATION_TYPE": "U", "NORAD_CAT_ID": 34833, "ELEMENT_SET_NO": 999, "REV_AT_EPOCH": 87641, "BSTAR": 0.0013775524, "MEAN_MOTION_DOT": 5.64e-05, "MEAN_MOTION_DDOT": 0}, "tle": {"line1": "1 34833U 97051MH  25341.67133054  .00005640  00000+0  13776-2 0  9997", "line2": "2 34833  86.3933  53.1785 0021747 114.0848  36.8101 14.52331498876416"}}, "geometry": {"type": "Point", "coordinates": [-123.60115817761721, -44.25415973881473]}}, {"type": "Feature", "properties": {"norad_id": 34870, "name": "IRIDIUM 33 DEB", "group": "iridium-33-debris", "lat": 0.4961305080261917, "lon": 136.04995308194043, "alt_km": 633.8759589033452, "timestamp": "2025-12-08T08:59:01.151701+00:00", "meta": {"OBJECT_NAME": "IRIDIUM 33 DEB", "OBJECT_ID": "1997-051MQ", "EPOCH": "2025-12-07T16:41:29.147136", "MEAN_MOTION": 14.76276846, "ECCENTRICITY": 0.00154613, "INCLINATION": 86.3098, "RA_OF_ASC_NODE": 316.3928, "ARG_OF_PERICENTER": 201.8854, "MEAN_ANOMALY": 332.1192, "EPHEMERIS_TYPE": 0, "CLASSIFICATION_TYPE": "U", "NORAD_CAT_ID": 34870, "ELEMENT_SET_NO": 999, "REV_AT_EPOCH": 88836, "BSTAR": 0.0025960003, "MEAN_MOTION_DOT": 0.00018071, "MEAN_MOTION_DDOT": 0}, "tle": {"line1": "1 34870U 97051MQ  25341.69547624  .00018071  00000+0  25960-2 0  9992", "line2": "2 34870  86.3098 316.3928 0015461 201.8854 332.1192 14.76276846888360"}}, "geometry": {"type": "Point", "coordinates": [136.04995308194043, 0.4961305080261917]}}, {"type": "Feature", "properties": {"norad_id": 34896, "name": "IRIDIUM 33 DEB", "group": "iridium-33-debris", "lat": 0.7777734326194369, "lon": 148.59314030623057, "alt_km": 665.7206833476848, "timestamp": "2025-12-08T08:59:01.151711+00:00", "meta": {"OBJECT_NAME": "IRIDIUM 33 DEB", "OBJECT_ID": "1997-051MY", "EPOCH": "2025-12-07T22:28:25.315968", "MEAN_MOTION": 14.6620206, "ECCENTRICITY": 0.00239168, "INCLINATION": 86.3288, "RA_OF_ASC_NODE": 328.8394, "ARG_OF_PERICENTER": 232.3363, "MEAN_ANOMALY": 157.0187, "EPHEMERIS_TYPE": 0, "CLASSIFICATION_TYPE": "U", "NORAD_CAT_ID": 34896, "ELEMENT_SET_NO": 999, "REV_AT_EPOCH": 87549, "BSTAR": 0.001346042, "MEAN_MOTION_DOT": 7.462e-05, "MEAN_MOTION_DDOT": 0}, "tle": {"line1": "1 34896U 97051MY  25341.93640412  .00007462  00000+0  13460-2 0  9990", "line2": "2 34896  86.3288 328.8394 0023916 232.3363 157.0187 14.66202060875496"}}, "geometry": {"type": "Point", "coordinates": [148.59314030623057, 0.7777734326194369]}}, {"type": "Feature", "properties": {"norad_id": 34926, "name": "IRIDIUM 33 DEB", "group": "iridium-33-debris", "lat": 84.08524439919512, "lon": 149.52038546139903, "alt_km": 749.7904700339177, "timestamp": "2025-12-08T08:59:01.151722+00:00", "meta": {"OBJECT_NAME": "IRIDIUM 33 DEB", "OBJECT_ID": "1997-051NF", "EPOCH": "2025-12-07T13:26:03.158592", "MEAN_MOTION": 14.54055785, "ECCENTRICITY": 0.00761486, "INCLINATION": 86.1317, "RA_OF_ASC_NODE": 10.6739, "ARG_OF_PERICENTER": 310.513, "MEAN_ANOMALY": 202.227, "EPHEMERIS_TYPE": 0, "CLASSIFICATION_TYPE": "U", "NORAD_CAT_ID": 34926, "ELEMENT_SET_NO": 999, "REV_AT_EPOCH": 86381, "BSTAR": 0.0081725405, "MEAN_MOTION_DOT": 0.00036005, "MEAN_MOTION_DDOT": 0}, "tle": {"line1": "1 34926U 97051NF  25341.55975878  .00036005  00000+0  81725-2 0  9993", "line2": "2 34926  86.1317  10.6739 0076148 310.5130 202.2270 14.54055785863812"}}, "geometry": {"type": "Point", "coordinates": [149.52038546139903, 84.08524439919512]}}, {"type": "Feature", "properties": {"norad_id": 34985, "name": "IRIDIUM 33 DEB", "group": "iridium-33-debris", "lat": 51.17478819522197, "lon": 63.266642944672434, "alt_km": 761.7484156042165, "timestamp": "2025-12-08T08:59:01.151733+00:00", "meta": {"OBJECT_NAME": "IRIDIUM 33 DEB", "OBJECT_ID": "1997-051NR", "EPOCH": "2025-12-07T23:19:57.204768", "MEAN_MOTION": 14.41977282, "ECCENTRICITY": 0.00202615, "INCLINATION": 86.3696, "RA_OF_ASC_NODE": 58.9132, "ARG_OF_PERICENTER": 236.1958, "MEAN_ANOMALY": 249.0046, "EPHEMERIS_TYPE": 0, "CLASSIFICATION_TYPE": "U", "NORAD_CAT_ID": 34985, "ELEMENT_SET_NO": 999, "REV_AT_EPOCH": 87106, "BSTAR": 0.0009890177, "MEAN_MOTION_DOT": 3.268e-05, "MEAN_MOTION_DDOT": 0}, "tle": {"line1": "1 34985U 97051NR  25341.97218987  .00003268  00000+0  98902-3 0  9996", "line2": "2 34985  86.3696  58.9132 0020261 236.1958 249.0046 14.41977282871064"}}, "geometry": {"type": "Point", "coordinates": [63.266642944672434, 51.17478819522197]}}, {"type": "Feature", "properties": {"norad_id": 35051, "name": "IRIDIUM 33 DEB", "group": "iridium-33-debris", "lat": -76.05501522955599, "lon": -154.23081560332375, "alt_km": 747.8792730962186, "timestamp": "2025-12-08T08:59:01.151743+00:00", "meta": {"OBJECT_NAME": "IRIDIUM 33 DEB", "OBJECT_ID": "1997-051NX", "EPOCH": "2025-12-05T08:27:53.565120", "MEAN_MOTION": 14.47546386, "ECCENTRICITY": 0.00106363, "INCLINATION": 86.3242, "RA_OF_ASC_NODE": 12.0813, "ARG_OF_PERICENTER": 111.2483, "MEAN_ANOMALY": 248.9857, "EPHEMERIS_TYPE": 0, "CLASSIFICATION_TYPE": "U", "NORAD_CAT_ID": 35051, "ELEMENT_SET_NO": 999, "REV_AT_EPOCH": 86889, "BSTAR": 0.0012192117, "MEAN_MOTION_DOT": 4.506e-05, "MEAN_MOTION_DDOT": 0}, "tle": {"line1": "1 35051U 97051NX  25339.35270330  .00004506  00000+0  12192-2 0  9992", "line2": "2 35051  86.3242  12.0813 0010636 111.2483 248.9857 14.47546386868892"}}, "geometry": {"type": "Point", "coordinates": [-154.23081560332375, -76.05501522955599]}}, {"type": "Feature", "properties": {"norad_id": 35052, "name": "IRIDIUM 33 DEB", "group": "iridium-33-debris", "lat": -8.556532087328822, "lon": -157.09901291557483, "alt_km": 767.8576913966817, "timestamp": "2025-12-08T08:59:01.151753+00:00", "meta": {"OBJECT_NAME": "IRIDIUM 33 DEB", "OBJECT_ID": "1997-051NY", "EPOCH": "2025-12-07T20:25:31.207296", "MEAN_MOTION": 14.38483382, "ECCENTRICITY": 0.00136742, "INCLINATION": 86.3314, "RA_OF_ASC_NODE": 22.5721, "ARG_OF_PERICENTER": 98.6502, "MEAN_ANOMALY": 261.6246, "EPHEMERIS_TYPE": 0, "CLASSIFICATION_TYPE": "U", "NORAD_CAT_ID": 35052, "ELEMENT_SET_NO": 999, "REV_AT_EPOCH": 87205, "BSTAR": 0.00029940676, "MEAN_MOTION_DOT": 9.35e-06, "MEAN_MOTION_DDOT": 0}, "tle": {"line1": "1 35052U 97051NY  25341.85105564  .00000935  00000+0  29941-3 0  9990", "line2": "2 35052  86.3314  22.5721 0013674  98.6502 261.6246 14.38483382872055"}}, "geometry": {"type": "Point", "coordinates": [-157.09901291557483, -8.556532087328822]}}, {"type": "Feature", "properties": {"norad_id": 35080, "name": "IRIDIUM 33 DEB", "group": "iridium-33-debris", "lat": -16.229272998182328, "lon": 53.355454011871025, "alt_km": 654.2197738341056, "timestamp": "2025-12-08T08:59:01.151763+00:00", "meta": {"OBJECT_NAME": "IRIDIUM 33 DEB", "OBJECT_ID": "1997-051PF", "EPOCH": "2025-12-07T03:56:57.228000", "MEAN_MOTION": 14.84984073, "ECCENTRICITY": 0.00622366, "INCLINATION": 86.2081, "RA_OF_ASC_NODE": 55.0388, "ARG_OF_PERICENTER": 201.0012, "MEAN_ANOMALY": 158.8655, "EPHEMERIS_TYPE": 0, "CLASSIFICATION_TYPE": "U", "NORAD_CAT_ID": 35080, "ELEMENT_SET_NO": 999, "REV_AT_EPOCH": 69605, "BSTAR": 0.011261596, "MEAN_MOTION_DOT": 0.00100643, "MEAN_MOTION_DDOT": 0}, "tle": {"line1": "1 35080U 97051PF  25341.16455125  .00100643  00000+0  11262-1 0  9998", "line2": "2 35080  86.2081  55.0388 0062236 201.0012 158.8655 14.84984073696059"}}, "geometry": {"type": "Point", "coordinates": [53.355454011871025, -16.229272998182328]}}, {"type": "Feature", "properties": {"norad_id": 35297, "name": "IRIDIUM 33 DEB", "group": "iridium-33-debris", "lat": -9.328706497499258, "lon": 64.02852060709643, "alt_km": 757.3766845168548, "timestamp": "2025-12-08T08:59:01.151774+00:00", "meta": {"OBJECT_NAME": "IRIDIUM 33 DEB", "OBJECT_ID": "1997-051PM", "EPOCH": "2025-12-06T00:31:29.302752", "MEAN_MOTION": 14.45108459, "ECCENTRICITY": 0.00170329, "INCLINATION": 86.3867, "RA_OF_ASC_NODE": 65.6268, "ARG_OF_PERICENTER": 161.2449, "MEAN_ANOMALY": 198.9384, "EPHEMERIS_TYPE": 0, "CLASSIFICATION_TYPE": "U", "NORAD_CAT_ID": 35297, "ELEMENT_SET_NO": 999, "REV_AT_EPOCH": 70329, "BSTAR": 0.0012426888, "MEAN_MOTION_DOT": 4.371e-05, "MEAN_MOTION_DDOT": 0}, "tle": {"line1": "1 35297U 97051PM  25340.02186693  .00004371  00000+0  12427-2 0  9999", "line2": "2 35297  86.3867  65.6268 0017032 161.2449 198.9384 14.45108459703293"}}, "geometry": {"type": "Point", "coordinates": [64.02852060709643, -9.328706497499258]}}, {"type": "Feature", "properties": {"norad_id": 35299, "name": "IRIDIUM 33 DEB", "group": "iridium-33-debris", "lat": -9.55948841694617, "lon": 34.460487051679934, "alt_km": 784.3153599305952, "timestamp": "2025-12-08T08:59:01.151784+00:00", "meta": {"OBJECT_NAME": "IRIDIUM 33 DEB", "OBJECT_ID": "1997-051PP", "EPOCH": "2025-12-07T21:55:49.054080", "MEAN_MOTION": 14.4082407, "ECCENTRICITY": 0.00588567, "INCLINATION": 86.2883, "RA_OF_ASC_NODE": 35.2873, "ARG_OF_PERICENTER": 117.7399, "MEAN_ANOMALY": 5.9721, "EPHEMERIS_TYPE": 0, "CLASSIFICATION_TYPE": "U", "NORAD_CAT_ID": 35299, "ELEMENT_SET_NO": 999, "REV_AT_EPOCH": 86261, "BSTAR": 0.0010762038, "MEAN_MOTION_DOT": 3.537e-05, "MEAN_MOTION_DDOT": 0}, "tle": {"line1": "1 35299U 97051PP  25341.91376220  .00003537  00000+0  10762-2 0  9990", "line2": "2 35299  86.2883  35.2873 0058856 117.7399   5.9721 14.40824070862619"}}, "geometry": {"type": "Point", "coordinates": [34.460487051679934, -9.55948841694617]}}]}